{
    "links": {
        "self": "http://www.neowsapp.com/rest/v1/neo/54075319?api_key=iIulBulltgU6a56xZRHN4H3l9WmuAYTsLGpBGhQ2"
    },
    "id": "54075319",
    "neo_reference_id": "54075319",
    "name": "(2020 TL8)",
    "designation": "2020 TL8",
    "nasa_jpl_url": "http://ssd.jpl.nasa.gov/sbdb.cgi?sstr=54075319",
    "absolute_magnitude_h": 21.625,
    "estimated_diameter": {
        "kilometers": {
            "estimated_diameter_min": 0.1257636046,
            "estimated_diameter_max": 0.2812159691
        },
        "meters": {
            "estimated_diameter_min": 125.763604632,
            "estimated_diameter_max": 281.2159690525
        },
        "miles": {
            "estimated_diameter_min": 0.0781458568,
            "estimated_diameter_max": 0.1747394479
        },
        "feet": {
            "estimated_diameter_min": 412.6102646207,
            "estimated_diameter_max": 922.6245999061
        }
    },
    "is_potentially_hazardous_asteroid": false,
    "close_approach_data": [
        {
            "close_approach_date": "2009-04-06",
            "close_approach_date_full": "2009-Apr-06 13:10",
            "epoch_date_close_approach": 1239023400000,
            "relative_velocity": {
                "kilometers_per_second": "21.9795717041",
                "kilometers_per_hour": "79126.4581346196",
                "miles_per_hour": "49166.1039448141"
            },
            "miss_distance": {
                "astronomical": "0.4399710547",
                "lunar": "171.1487402783",
                "kilometers": "65818732.644773489",
                "miles": "40897864.0063085882"
            },
            "orbiting_body": "Earth"
        },
        {
            "close_approach_date": "2018-09-12",
            "close_approach_date_full": "2018-Sep-12 20:52",
            "epoch_date_close_approach": 1536785520000,
            "relative_velocity": {
                "kilometers_per_second": "20.9904406024",
                "kilometers_per_hour": "75565.5861684622",
                "miles_per_hour": "46953.5165833981"
            },
            "miss_distance": {
                "astronomical": "0.4144403935",
                "lunar": "161.2173130715",
                "kilometers": "61999400.109561845",
                "miles": "38524640.816749661"
            },
            "orbiting_body": "Earth"
        },
        {
            "close_approach_date": "2018-11-16",
            "close_approach_date_full": "2018-Nov-16 01:21",
            "epoch_date_close_approach": 1542331260000,
            "relative_velocity": {
                "kilometers_per_second": "8.2802848124",
                "kilometers_per_hour": "29809.025324693",
                "miles_per_hour": "18522.1690968905"
            },
            "miss_distance": {
                "astronomical": "0.071173032",
                "lunar": "27.686309448",
                "kilometers": "10647333.98864184",
                "miles": "6615946.555023792"
            },
            "orbiting_body": "Mars"
        },
        {
            "close_approach_date": "2020-04-16",
            "close_approach_date_full": "2020-Apr-16 19:28",
            "epoch_date_close_approach": 1587065280000,
            "relative_velocity": {
                "kilometers_per_second": "15.8536630481",
                "kilometers_per_hour": "57073.186973237",
                "miles_per_hour": "35463.0588723428"
            },
            "miss_distance": {
                "astronomical": "0.2315987882",
                "lunar": "90.0919286098",
                "kilometers": "34646685.409301134",
                "miles": "21528452.0257542892"
            },
            "orbiting_body": "Earth"
        }
    ],
    "orbital_data": {
        "orbit_id": "2",
        "orbit_determination_date": "2020-10-25 07:36:23",
        "first_observation_date": "2020-10-13",
        "last_observation_date": "2020-10-23",
        "data_arc_in_days": 10,
        "observations_used": 12,
        "orbit_uncertainty": "7",
        "minimum_orbit_intersection": ".0821257",
        "jupiter_tisserand_invariant": "4.449",
        "epoch_osculation": "2459000.5",
        "eccentricity": ".3835004933613152",
        "semi_major_axis": "1.500696275183338",
        "inclination": "8.347408326082467",
        "ascending_node_longitude": "9.859939875906464",
        "orbital_period": "671.4870380754567",
        "perihelion_distance": ".92517851326504",
        "perihelion_argument": "263.4830953573231",
        "aphelion_distance": "2.076214037101636",
        "perihelion_time": "2459001.374299083096",
        "mean_anomaly": "359.5312676908601",
        "mean_motion": ".5361235282095586",
        "equinox": "J2000",
        "orbit_class": {
            "orbit_class_type": "APO",
            "orbit_class_description": "Near-Earth asteroid orbits which cross the Earth’s orbit similar to that of 1862 Apollo",
            "orbit_class_range": "a (semi-major axis) > 1.0 AU; q (perihelion) < 1.017 AU"
        }
    },
    "is_sentry_object": false
}